SITRO-AIS 30            
1 59053U 24039C   24274.89714337  .00061156  00000+0  17277-2 0  9995
2 59053  97.4010 236.6063 0014406 183.7629 176.3509 15.36035154 32764
SITRO-AIS 31            
1 59054U 24039D   24274.87807400  .00062729  00000+0  17579-2 0  9990
2 59054  97.4007 236.6328 0014163 183.3787 176.7364 15.36283647 32783
SITRO-AIS 33            
1 59055U 24039E   24274.92648357  .00062761  00000+0  17528-2 0  9991
2 59055  97.4009 236.7303 0013808 183.6710 176.4435 15.36394733 32789
SITRO-AIS 35            
1 59056U 24039F   24274.92156327  .00062471  00000+0  17449-2 0  9993
2 59056  97.4010 236.7327 0013618 183.6845 176.4300 15.36395173 32786
SITRO-AIS 32            
1 59057U 24039G   24274.87275845  .00060443  00000+0  16978-2 0  9998
2 59057  97.4011 236.6487 0013946 184.2269 175.8860 15.36223993 32778
SITRO-AIS 34            
1 59058U 24039H   24274.92690765  .00068030  00000+0  18952-2 0  9991
2 59058  97.4010 236.7315 0013684 183.6206 176.4942 15.36450743 32786
SITRO-AIS 36            
1 59059U 24039J   24274.91129401  .00064650  00000+0  17980-2 0  9999
2 59059  97.4012 236.7471 0013566 183.2228 176.8931 15.36520160 32784
SITRO-AIS 49            
1 59060U 24039K   24274.91713356  .00065562  00000+0  18315-2 0  9995
2 59060  97.4012 236.7397 0013637 183.0543 177.0620 15.36376329 32784
SITRO-AIS 50            
1 59061U 24039L   24274.89367869  .00060858  00000+0  16826-2 0  9995
2 59061  97.4011 236.7685 0013498 182.1120 178.0069 15.36722471 32781
SITRO-AIS 51            
1 59062U 24039M   24274.89291478  .00057596  00000+0  15928-2 0  9995
2 59062  97.4010 236.7685 0013471 182.3674 177.7509 15.36730845 32787
SITRO-AIS 52            
1 59063U 24039N   24274.87930782  .00067260  00000+0  18492-2 0  9990
2 59063  97.4008 236.7898 0013264 182.3148 177.8038 15.36870640 32783
SITRO-AIS 25            
1 59066U 24039R   24274.89723925  .00015680  00000+0  14440-2 0  9992
2 59066  95.3936 169.0034 0166150 339.9211  19.5522 14.84763810 31788
SITRO-AIS 26            
1 59067U 24039S   24274.90031366  .00015582  00000+0  14382-2 0  9992
2 59067  95.3937 168.9999 0166212 339.9611  19.5131 14.84674018 31788
SITRO-AIS 27            
1 59068U 24039T   24274.94508655  .00015782  00000+0  14498-2 0  9997
2 59068  95.3940 169.0716 0165669 339.5602  19.9039 14.84910053 31797
SITRO-AIS 28            
1 59071U 24039U   24274.93936362  .00016050  00000+0  14733-2 0  9991
2 59071  95.3941 169.0788 0165444 339.5499  19.9147 14.84961335 31795
GRBBETA                 
1 60237U 24128C   24274.46598555  .00012815  00000+0  10851-2 0  9994
2 60237  61.9929 235.8700 0019254 345.2086  14.8437 14.98183058 12366
OOV-CUBE (TUBSAT-30)    
1 60240U 24128F   24274.30406009  .00009517  00000+0  83063-3 0  9994
2 60240  61.9966 236.7781 0017240 337.4599  22.5730 14.97256268 12348
ROBUSTA-3A (MEDITERRAN*)
1 60243U 24128J   24274.31532453  .00021211  00000+0  18080-2 0  9992
2 60243  61.9898 236.7643 0018123 327.3932  32.6036 14.97658763 12349
BEIJING 1               
1 28890U 05043A   24274.93435150  .00001573  00000+0  31856-3 0  9999
2 28890  98.2132  37.1099 0015988  76.7589 283.5395 14.62602549  9368
HUANJING 1A (HJ-1A)     
1 33320U 08041A   24274.94990828  .00006490  00000+0  84519-3 0  9990
2 33320  97.6347 276.8086 0020946  30.7061 329.5373 14.80774538865901
HUANJING 1B (HJ-1B)     
1 33321U 08041B   24274.93939517  .00003934  00000+0  50937-3 0  9995
2 33321  97.6282 281.2974 0039685  71.2509 289.3004 14.80835725865936
YAOGAN-4                
1 33446U 08061A   24274.89116867  .00005377  00000+0  70766-3 0  9990
2 33446  97.8820 204.8163 0013437 307.0888  52.9095 14.80511921853190
DEIMOS-1                
1 35681U 09041A   24274.92747287  .00002297  00000+0  35909-3 0  9990
2 35681  97.6842  91.2384 0002565  67.8745 292.2736 14.73695446814882
UK-DMC 2                
1 35683U 09041C   24274.93000602  .00003784  00000+0  58461-3 0  9996
2 35683  97.7966  58.3479 0001435  98.1931 261.9441 14.73869632814538
DMC3-FM1                
1 40715U 15032A   24274.89923131  .00002604  00000+0  31816-3 0  9996
2 40715  97.7315 150.6471 0004574 320.3298  39.7581 14.84100832497253
DMC3-FM2                
1 40716U 15032B   24274.92152302  .00002656  00000+0  32430-3 0  9995
2 40716  97.7369 151.8092 0006537 321.8025  38.2726 14.84111011497256
DMC3-FM3                
1 40717U 15032C   24274.95263540  .00002847  00000+0  34795-3 0  9994
2 40717  97.7418 153.1649 0007908 316.4811  43.5779 14.84017790497268
NOAA 15                 
1 25338U 98030A   24274.92823030  .00000636  00000+0  28043-3 0  9991
2 25338  98.5629 299.8255 0010590  22.1991 337.9647 14.26725681372262
DMSP 5D-3 F16 (USA 172) 
1 28054U 03048A   24274.94184214  .00000635  00000+0  35710-3 0  9998
2 28054  99.0238 282.4210 0008346 111.3571   4.5876 14.14132085 81245
NOAA 18                 
1 28654U 05018A   24274.90760492  .00000664  00000+0  37672-3 0  9998
2 28654  98.8674 350.9656 0015193 122.3412 237.9233 14.13346427998108
METEOSAT-9 (MSG-2)      
1 28912U 05049B   24274.54396861  .00000125  00000+0  00000+0 0  9997
2 28912   7.9265  59.9464 0001932 195.1207 356.2628  1.00275938 68810
EWS-G1 (GOES 13)        
1 29155U 06018A   24274.86993878 -.00000118  00000+0  00000+0 0  9993
2 29155   2.8978  83.9793 0064199 256.0719  91.8462  0.98860598 37076
DMSP 5D-3 F17 (USA 191) 
1 29522U 06050A   24274.93466391  .00000697  00000+0  38527-3 0  9990
2 29522  98.7458 283.3414 0010853  43.4788 316.7239 14.14589391924145
FENGYUN 3A              
1 32958U 08026A   24274.86025093  .00000601  00000+0  30707-3 0  9991
2 32958  98.6135 218.9705 0009628 123.1732 237.0369 14.19208033846837
NOAA 19                 
1 33591U 09005A   24274.87416058  .00000577  00000+0  33275-3 0  9994
2 33591  99.0360 331.7396 0013598 358.6148   1.4984 14.13133973806299
GOES 14                 
1 35491U 09033A   24274.61299236 -.00000073  00000+0  00000+0 0  9993
2 35491   0.0594 100.4524 0003841  75.3667 306.2326  1.00271009   336
DMSP 5D-3 F18 (USA 210) 
1 35951U 09057A   24274.89442009  .00000868  00000+0  47746-3 0  9991
2 35951  98.8271 248.8914 0010104 222.2611 137.7784 14.14294409771323
EWS-G2 (GOES 15)        
1 36411U 10008A   24274.90510010  .00000032  00000+0  00000+0 0  9992
2 36411   0.3301 274.5884 0006290 309.8458 172.8262  1.00272086 53389
COMS 1                  
1 36744U 10032A   24274.91839281 -.00000347  00000+0  00000+0 0  9993
2 36744   3.2199  83.2546 0000780 116.7748 268.8922  1.00273394 44832
FENGYUN 3B              
1 37214U 10059A   24274.95517389  .00000372  00000+0  21695-3 0  9995
2 37214  99.0484 304.4955 0022702 151.6136 271.2867 14.14576779719167
SUOMI NPP               
1 37849U 11061A   24274.91015370  .00000397  00000+0  20893-3 0  9998
2 37849  98.7278 211.3231 0000987  37.1435 322.9809 14.19588716669873
FENGYUN 2F              
1 38049U 12002A   24274.81546980 -.00000247  00000+0  00000+0 0  9991
2 38049   5.9987  72.9472 0002307 136.8328  66.3037  0.99140878 46616
METEOSAT-10 (MSG-3)     
1 38552U 12035B   24274.92149847 -.00000006  00000+0  00000+0 0  9992
2 38552   3.2033  61.5314 0001039 223.5795  57.0265  1.00276665 44592
METOP-B                 
1 38771U 12049A   24274.89773485  .00000513  00000+0  25403-3 0  9997
2 38771  98.6167 329.6901 0001407 107.2774 252.8558 14.21523483624577
INSAT-3D                
1 39216U 13038B   24274.58868731 -.00000346  00000+0  00000+0 0  9993
2 39216   0.3032  91.8302 0001627 119.9218 139.4822  1.00270272 40814
FENGYUN 3C              
1 39260U 13052A   24274.92850841  .00000401  00000+0  22262-3 0  9998
2 39260  98.4364 268.9676 0011654  27.6957 332.4836 14.16293676570234
METEOR-M 2              
1 40069U 14037A   24274.93018544  .00000494  00000+0  24685-3 0  9991
2 40069  98.4463 264.4916 0006835  57.7307 302.4533 14.21072895530645
HIMAWARI-8              
1 40267U 14060A   24274.34840091 -.00000283  00000+0  00000+0 0  9990
2 40267   0.0297 146.6820 0000711  44.5366  84.4642  1.00271252 36493
FENGYUN 2G              
1 40367U 14090A   24274.91274557 -.00000303  00000+0  00000+0 0  9998
2 40367   4.0572  80.2626 0002928 166.5584 191.5164  1.00268432 35731
METEOSAT-11 (MSG-4)     
1 40732U 15034A   24274.82285463  .00000060  00000+0  00000+0 0  9990
2 40732   1.6384  70.7978 0001580 181.3264  63.5926  1.00277779   963
ELEKTRO-L 2             
1 41105U 15074A   24274.86078674 -.00000117  00000+0  00000+0 0  9991
2 41105   5.1075  78.1598 0003059 164.7374  62.6325  1.00272510 32241
INSAT-3DR               
1 41752U 16054A   24274.90770650 -.00000083  00000+0  00000+0 0  9998
2 41752   0.0947  93.7296 0012679 169.3724 147.8199  1.00271828 29553
HIMAWARI-9              
1 41836U 16064A   24274.84771538 -.00000280  00000+0  00000+0 0  9990
2 41836   0.0312 169.5602 0000951  33.7467 252.7265  1.00273387 28947
GOES 16                 
1 41866U 16071A   24274.30548201 -.00000256  00000+0  00000+0 0  9994
2 41866   0.0748 287.0984 0000594 336.9967 140.2251  1.00273719 28831
FENGYUN 4A              
1 41882U 16077A   24274.14771521 -.00000208  00000+0  00000+0 0  9990
2 41882   0.7202  85.7511 0007776 342.9087  80.6920  1.00270107 28668
CYGFM05                 
1 41884U 16078A   24274.63384985  .00021386  00000+0  70833-3 0  9995
2 41884  34.9649 352.0506 0011327  84.7487 275.4521 15.30335780432229
CYGFM04                 
1 41885U 16078B   24274.55693696  .00022334  00000+0  71747-3 0  9998
2 41885  34.9393 335.4851 0009425 106.7044 253.4707 15.31327328432316
CYGFM02                 
1 41886U 16078C   24274.55808100  .00022484  00000+0  71293-3 0  9999
2 41886  34.9484 337.4697 0011950  94.6532 265.5550 15.31717046432401
